STARLINK-1750           
1 46337U 20062N   25135.34199546  .00001799  00000+0  13964-3 0  9991
2 46337  53.0545 255.9529 0000664  36.9263 323.1771 15.06391616259625
STARLINK-1752           
1 46338U 20062P   25134.79462750  .00000235  00000+0  34666-4 0  9997
2 46338  53.0559 278.4086 0001152  92.4896 267.6225 15.06402082259256
STARLINK-1759           
1 46340U 20062R   25134.66564367 -.00006560  00000+0 -42184-3 0  9995
2 46340  53.0565 279.3043 0001456  90.6926 269.4230 15.06405111259229
STARLINK-1762           
1 46342U 20062T   25135.88197139 -.00002869  00000+0 -17378-3 0  9996
2 46342  53.0543 273.5239 0001539 102.8830 257.2331 15.06398886259601
STARLINK-1764           
1 46343U 20062U   25135.34567691  .00001443  00000+0  11572-3 0  9997
2 46343  53.0533 255.9345 0001266  83.3709 276.7424 15.06399508259621
STARLINK-1765           
1 46344U 20062V   25135.36410599  .00001025  00000+0  87677-4 0  9990
2 46344  53.0533 255.8512 0001126  93.5732 266.5386 15.06400668259625
STARLINK-1767           
1 46345U 20062W   25134.83517471 -.00000144  00000+0  92400-5 0  9992
2 46345  53.0545 278.2255 0001222  89.3795 270.7334 15.06400681259266
STARLINK-1547           
1 46347U 20062Y   25135.78844007  .00011246  00000+0  77244-3 0  9998
2 46347  53.0533 228.9465 0001147  86.7992 273.3128 15.06412466260217
STARLINK-1553           
1 46348U 20062Z   25135.79121618  .00025131  00000+0  12776-2 0  9992
2 46348  53.0520 245.8158 0003362 261.1324  98.9288 15.16725286259988
STARLINK-1575           
1 46349U 20062AA  25136.22706549 -.00002878  00000+0 -17450-3 0  9994
2 46349  53.0539 226.9776 0000531  82.3928 277.7121 15.06390236260283
STARLINK-1646           
1 46351U 20062AC  25134.60479504  .00004081  00000+0  29259-3 0  9991
2 46351  53.0549 259.2618 0001153  93.8842 266.2279 15.06409869259697
STARLINK-1653           
1 46352U 20062AD  25135.64792008  .00000893  00000+0  78812-4 0  9991
2 46352  53.0531 254.5768 0001264 117.0530 243.0588 15.06397870259851
STARLINK-1656           
1 46353U 20062AE  25134.78355339 -.00001584  00000+0 -87510-4 0  9993
2 46353  53.0552 278.4564 0000875  89.3201 270.7888 15.06399791259255
STARLINK-1657           
1 46354U 20062AF  25134.83884989  .00002950  00000+0  21674-3 0  9992
2 46354  53.0545 278.2093 0001264  87.5372 272.5762 15.06414945259266
STARLINK-1661           
1 46355U 20062AG  25135.41017639  .00002218  00000+0  16777-3 0  9993
2 46355  53.0566 275.6480 0001382 100.4928 259.6217 15.06392349259358
STARLINK-1665           
1 46356U 20062AH  25135.35858267  .00001654  00000+0  12989-3 0  9991
2 46356  53.0536 275.9144 0001024  90.4947 269.6159 15.06397511259349
STARLINK-1666           
1 46357U 20062AJ  25134.75591578  .00002065  00000+0  15744-3 0  9993
2 46357  53.0546 258.5831 0001290  93.5650 266.5486 15.06416678259537
STARLINK-1707           
1 46359U 20062AL  25135.72880607  .00019693  00000+0  11132-2 0  9998
2 46359  53.0544 227.3223 0004482 296.8738  63.1795 15.13098189260231
STARLINK-1713           
1 46360U 20062AM  25136.25002315  .00097335  00000+0  23114-2 0  9993
2 46360  53.0510 221.4763 0002813 335.7990 196.4020 15.40913440260360
STARLINK-1726           
1 46362U 20062AP  25135.28346062 -.00003394  00000+0 -20902-3 0  9994
2 46362  53.0552 231.2139 0001609  84.5936 275.5237 15.06402230259960
STARLINK-1739           
1 46363U 20062AQ  25135.55437833  .00870290  38525-3  14099-2 0  9993
2 46363  53.0214 172.0911 0012087 359.0467 120.2990 16.02743685260960
STARLINK-1651           
1 46366U 20062AT  25135.90639699 -.00003278  00000+0 -20131-3 0  9993
2 46366  53.0551 228.4187 0001576  63.8688 296.2463 15.06388943260238
STARLINK-1689           
1 46372U 20062AZ  25135.91668981  .00097192  00000+0  15036-2 0  9990
2 46372  53.0371 235.1044 0005183 284.3312  71.9900 15.53293600260156
STARLINK-1724           
1 46375U 20062BC  25135.83267513 -.00002148  00000+0 -12539-3 0  9995
2 46375  53.0534 228.7466 0001408  50.2492 309.8620 15.06385441260224
STARLINK-1742           
1 46376U 20062BD  25135.78240931  .00028470  00000+0  13723-2 0  9994
2 46376  53.0493 224.7824 0008950 227.4340 132.5900 15.18493400260277
STARLINK-1769           
1 46382U 20062BK  25135.26504268  .00007109  00000+0  49542-3 0  9995
2 46382  53.0536 231.3005 0001525  96.4445 263.6718 15.06417446259968
STARLINK-1770           
1 46383U 20062BL  25134.72089686 -.00001522  00000+0 -83320-4 0  9996
2 46383  53.0549 278.7404 0001452  75.6673 284.4477 15.06390297259420
STARLINK-1771           
1 46384U 20062BM  25134.65824646  .00000849  00000+0  75845-4 0  9994
2 46384  53.0558 279.0213 0001249  90.1324 269.9808 15.06404756259413
GAOFEN-11 02            
1 46396U 20064A   25136.09209796  .00006819  00000+0  29030-3 0  9999
2 46396  97.4720 257.7813 0017663 296.6470  63.2957 15.23176440261070
JILIN-1 GAOFEN 3B       
1 46454U 20065A   25136.11786639  .00024653  00000+0  56508-3 0  9990
2 46454  97.2851 184.0008 0007058 126.1179 234.0723 15.42721072258473
JILIN-1 GAOFEN 3C       
1 46455U 20065B   25136.11264075  .00032011  00000+0  62995-3 0  9990
2 46455  97.2806 183.8964 0004867 134.1116 226.0535 15.47182375258538
JILIN-1 GAOFEN 3D       
1 46456U 20065C   25136.22230709  .00035878  00000+0  64676-3 0  9992
2 46456  97.2879 186.8469 0006207 138.8685 221.3035 15.49677061258608
JILIN-1 GAOFEN 3E       
1 46457U 20065D   25136.12124814  .00017392  00000+0  49795-3 0  9997
2 46457  97.2871 182.6832 0022953 165.7351 194.4546 15.35730769258375
JILIN-1 GAOFEN 3F       
1 46458U 20065E   25136.08968154  .00017198  00000+0  50192-3 0  9993
2 46458  97.2804 181.0405 0024700 153.1595 207.0933 15.35088259258364
JILIN-1 GAOFEN 3G       
1 46459U 20065F   25136.12577196  .00019285  00000+0  52660-3 0  9992
2 46459  97.2916 184.7784 0022661  68.4279 291.9378 15.37189629258438
JILIN-1 GAOFEN 3H       
1 46460U 20065G   25136.21713889  .00017904  00000+0  49528-3 0  9990
2 46460  97.2827 182.2369 0011857   3.0771 357.0544 15.36995783258434
JILIN-1 GAOFEN 3I       
1 46461U 20065H   25136.11044896  .00023899  00000+0  58163-3 0  9990
2 46461  97.2895 184.8609 0022751 102.0943 258.2854 15.40670969258461
JILIN-1 GAOFEN 3J       
1 46462U 20065J   25136.22179841  .00023407  00000+0  55356-3 0  9998
2 46462  97.2856 184.1140 0007575 131.7269 228.4627 15.41787123258491
HAIYANG-2C              
1 46469U 20066A   25136.12292299 -.00000042  00000+0  35656-4 0  9991
2 46469  65.9942 123.8876 0010551 298.8454  61.1555 13.83373756234865
HJ-2A                   
1 46478U 20067A   25136.11716746  .00000828  00000+0  12592-3 0  9993
2 46478  97.9131 218.0785 0004705  91.0909 269.0840 14.76551961249667
HJ-2B                   
1 46479U 20067B   25136.15303066  .00000803  00000+0  12240-3 0  9998
2 46479  97.9182 218.8610 0001305 158.1179 202.0087 14.76549214249675
GONETS-M 17             
1 46486U 20068A   25136.19325700  .00000040  00000+0  21836-3 0  9994
2 46486  82.4988 234.4364 0023587 178.5302 181.5851 12.42893956210030
GONETS-M 18             
1 46487U 20068B   25136.24093113  .00000045  00000+0  25318-3 0  9995
2 46487  82.4943 233.6807 0020838 174.9474 185.1819 12.42884393210030
GONETS-M 19             
1 46488U 20068C   25135.81131813  .00000047  00000+0  26894-3 0  9990
2 46488  82.4968 234.3121 0014108 188.3952 171.6894 12.42857658209998
DEKART                  
1 46493U 20068H   25135.49775201  .00009674  00000+0  37090-3 0  9990
2 46493  97.8570 115.2133 0009616 240.6506 119.3771 15.26695558254894
NORBI                   
1 46494U 20068J   25135.59104042  .00012917  00000+0  43089-3 0  9990
2 46494  97.8550 117.7359 0008409 228.9551 131.0963 15.31185494255061
SALSAT                  
1 46495U 20068K   25134.91930967  .00007051  00000+0  30827-3 0  9998
2 46495  97.8595 111.7726 0009578 247.8323 112.1896 15.22385086254623
ICEYE-X7                
1 46496U 20068L   25136.11073672  .00009258  00000+0  42065-3 0  9992
2 46496  97.7066  84.3288 0007514 280.1871  79.8516 15.20973560254233
ICEYE-X6                
1 46497U 20068M   25136.12996749  .00003495  00000+0  28086-3 0  9997
2 46497  98.0553 107.8674 0005594  10.7715 349.3626 15.00718626253604
KEPLER-4 (ANTILLES)     
1 46499U 20068P   25135.94722183  .00239643  00000+0  10114-2 0  9995
2 46499  97.7962 134.4765 0008507 153.8468 206.3232 15.84761002256239
NETSAT-4                
1 46504U 20068U   25135.88832053  .00013897  00000+0  48426-3 0  9992
2 46504  97.8448 112.3373 0005204 298.5513  61.5202 15.29770218254778
NETSAT-3                
1 46505U 20068V   25134.87499681  .00013510  00000+0  49237-3 0  9990
2 46505  97.8444 110.2697 0005335 318.1499  41.9331 15.28306426254587
NETSAT-1                
1 46506U 20068W   25135.37415760  .00008764  00000+0  36789-3 0  9996
2 46506  97.8474 108.8027 0005481 334.5156  25.5809 15.23713680254526
NETSAT-2                
1 46507U 20068X   25135.41448902  .00013603  00000+0  48003-3 0  9996
2 46507  97.8445 111.3397 0004461 341.4818  18.6258 15.29364994254643
STARLINK-1648           
1 46533U 20070B   25136.19528817 -.00000059  00000+0  14962-4 0  9998
2 46533  53.0557  72.1236 0001452  92.8659 267.2497 15.06391830254688
STARLINK-1663           
1 46535U 20070D   25136.03310791  .00002052  00000+0  15662-3 0  9994
2 46535  53.0555  72.8470 0001585  88.1120 272.0050 15.06392323254657
STARLINK-1672           
1 46537U 20070F   25136.19160325 -.00000188  00000+0  62733-5 0  9991
2 46537  53.0558  72.1354 0001461  91.2919 268.8237 15.06391469254379
STARLINK-1678           
1 46538U 20070G   25135.83774527 -.00002535  00000+0 -15140-3 0  9994
2 46538  53.0560  73.7266 0001459  68.3843 291.7302 15.06393110254317
STARLINK-1687           
1 46541U 20070K   25136.08286907  .00000205  00000+0  32704-4 0  9992
2 46541  53.0556  52.6259 0001576 100.1806 259.9361 15.06382411254928
